NORAD_CAT_ID,OBJECT_NAME,OBJECT_TYPE,EPOCH,MEAN_MOTION,ECCENTRICITY,INCLINATION,RA_OF_ASC_NODE,ARG_OF_PERICENTER,MEAN_ANOMALY,BSTAR,MEAN_MOTION_DOT,MEAN_MOTION_DDOT,TLE_LINE0,TLE_LINE1,TLE_LINE2,SEMIMAJOR_AXIS,PERIOD,APOGEE,PERIGEE,DECAYED
53411.0,STARLINK-4497,PAYLOAD,2024-04-16 09:01:04,15.08848942,0.0001427,53.2185,342.0418,94.1436,265.9719,0.00047121,7.221e-05,0.0,0 STARLINK-4497,1 53411U 22097Z   24107.37575182  .00007221  00000-0  47121-3 0  9996,2 53411  53.2185 342.0418 0001427  94.1436 265.9719 15.08848942 93643,6917.853,95.437,540.705,538.731,0.0
53411.0,STARLINK-4497,PAYLOAD,2024-04-16 20:08:47,15.08842532,0.0001388,53.2186,339.9554,115.9858,244.1277,7.6873e-05,9.36e-06,0.0,0 STARLINK-4497,1 53411U 22097Z   24107.83943431  .00000936  00000-0  76873-4 0  9996,2 53411  53.2186 339.9554 0001388 115.9858 244.1277 15.08842532 93711,6917.873,95.437,540.698,538.777,0.0
53411.0,STARLINK-4497,PAYLOAD,2024-04-16 21:44:10,15.08845733,0.0001544,53.2173,339.661,91.8792,268.2377,0.00013029,1.786e-05,0.0,0 STARLINK-4497,1 53411U 22097Z   24107.90567432  .00001786  00000-0  13029-3 0  9994,2 53411  53.2173 339.6610 0001544  91.8792 268.2377 15.08845733 94210,6917.863,95.437,540.796,538.66,0.0
53411.0,STARLINK-4497,PAYLOAD,2024-04-17 21:34:58,15.08817824,0.0001413,53.2183,335.2029,75.3588,284.7561,-0.00011946,-2.187e-05,0.0,0 STARLINK-4497,1 53411U 22097Z   24108.89929144 -.00002187  00000-0 -11946-3 0  9999,2 53411  53.2183 335.2029 0001413  75.3588 284.7561 15.08817824 93871,6917.948,95.439,540.791,538.836,0.0
53411.0,STARLINK-4497,PAYLOAD,2024-04-18 00:45:44,15.0882213,0.0001463,53.2182,334.6066,76.5253,283.5902,-0.00022667,-3.892e-05,0.0,0 STARLINK-4497,1 53411U 22097Z   24109.03176779 -.00003892  00000-0 -22667-3 0  9990,2 53411  53.2182 334.6066 0001463  76.5253 283.5902 15.08822130 94380,6917.935,95.439,540.812,538.788,0.0
53411.0,STARLINK-4497,PAYLOAD,2024-04-18 19:50:22,15.08838768,0.0001405,53.2189,331.0425,64.7721,295.3416,0.00028323,4.222e-05,0.0,0 STARLINK-4497,1 53411U 22097Z   24109.82664703  .00004222  00000-0  28323-3 0  9997,2 53411  53.2189 331.0425 0001405  64.7721 295.3416 15.08838768 94017,6917.884,95.438,540.721,538.777,0.0
53411.0,STARLINK-4497,PAYLOAD,2024-04-18 21:25:45,15.08844958,0.0001866,53.2174,330.7395,70.0332,290.0861,0.00023518,3.457e-05,0.0,0 STARLINK-4497,1 53411U 22097Z   24109.89288359  .00003457  00000-0  23518-3 0  9993,2 53411  53.2174 330.7395 0001866  70.0332 290.0861 15.08844958 94511,6917.865,95.437,541.021,538.439,0.0
53411.0,STARLINK-4497,PAYLOAD,2024-04-19 00:36:30,15.08861771,0.0001618,53.2176,330.1449,72.0898,288.0271,0.00056085,8.654e-05,0.0,0 STARLINK-4497,1 53411U 22097Z   24110.02535816  .00008654  00000-0  56085-3 0  9992,2 53411  53.2176 330.1449 0001618  72.0898 288.0271 15.08861771 94043,6917.814,95.436,540.798,538.56,0.0
53411.0,STARLINK-4497,PAYLOAD,2024-04-19 14:54:59,15.0885004,0.0001491,53.2175,327.4674,100.8104,259.3056,0.00053318,8.21e-05,0.0,0 STARLINK-4497,1 53411U 22097Z   24110.62152339  .00008210  00000-0  53318-3 0  9997,2 53411  53.2175 327.4674 0001491 100.8104 259.3056 15.08850040 94623,6917.85,95.437,540.746,538.683,0.0
53411.0,STARLINK-4497,PAYLOAD,2024-04-19 21:16:31,15.0885057,0.0001479,53.2173,326.2787,103.6525,256.4632,0.00039107,5.943e-05,0.0,0 STARLINK-4497,1 53411U 22097Z   24110.88648135  .00005943  00000-0  39107-3 0  9999,2 53411  53.2173 326.2787 0001479 103.6525 256.4632 15.08850570 94173,6917.848,95.437,540.736,538.69,0.0
53411.0,STARLINK-4497,PAYLOAD,2024-04-20 14:45:46,15.08847536,0.0001767,53.2178,323.003,115.9202,244.1972,-0.00011933,-2.187e-05,0.0,0 STARLINK-4497,1 53411U 22097Z   24111.61511609 -.00002187  00000-0 -11933-3 0  9992,2 53411  53.2178 323.0030 0001767 115.9202 244.1972 15.08847536 94777,6917.857,95.437,540.945,538.5,0.0
53411.0,STARLINK-4497,PAYLOAD,2024-04-20 19:31:56,15.08828839,0.0001394,53.2176,322.1156,90.3202,269.795,-0.00038916,-6.474e-05,0.0,0 STARLINK-4497,1 53411U 22097Z   24111.81384375 -.00006474  00000-0 -38916-3 0  9995,2 53411  53.2176 322.1156 0001394  90.3202 269.7950 15.08828839 94310,6917.915,95.438,540.744,538.815,0.0
53411.0,STARLINK-4497,PAYLOAD,2024-04-21 14:36:34,15.08835268,0.0001312,53.2175,318.5479,82.9156,277.1985,0.00015221,2.135e-05,0.0,0 STARLINK-4497,1 53411U 22097Z   24112.60872809  .00002135  00000-0  15221-3 0  9999,2 53411  53.2175 318.5479 0001312  82.9156 277.1985 15.08835268 94923,6917.895,95.438,540.667,538.852,0.0
53411.0,STARLINK-4497,PAYLOAD,2024-04-21 20:58:06,15.0884379,0.0001369,53.217,317.3562,64.6887,295.4247,0.00062921,9.741e-05,0.0,0 STARLINK-4497,1 53411U 22097Z   24112.87368856  .00009741  00000-0  62921-3 0  9999,2 53411  53.2170 317.3562 0001369  64.6887 295.4247 15.08843790 94471,6917.869,95.437,540.681,538.787,0.0
53411.0,STARLINK-4497,PAYLOAD,2024-04-21 22:33:29,15.08849338,0.0001339,53.2173,317.0592,73.5984,286.5155,0.00083832,0.00013082,0.0,0 STARLINK-4497,1 53411U 22097Z   24112.93992756  .00013082  00000-0  83832-3 0  9995,2 53411  53.2173 317.0592 0001339  73.5984 286.5155 15.08849338 94976,6917.852,95.437,540.643,538.791,0.0
53411.0,STARLINK-4497,PAYLOAD,2024-04-22 20:48:54,15.08835252,0.0001253,53.2167,312.8956,120.4316,239.68,0.00013852,1.917e-05,0.0,0 STARLINK-4497,1 53411U 22097Z   24113.86729269  .00001917  00000-0  13852-3 0  9994,2 53411  53.2167 312.8956 0001253 120.4316 239.6800 15.08835252 94620,6917.895,95.438,540.627,538.893,0.0
53411.0,STARLINK-4497,PAYLOAD,2024-04-23 22:15:04,15.08849873,0.0001233,53.2165,308.1397,81.225,278.8881,0.00047103,7.218e-05,0.0,0 STARLINK-4497,1 53411U 22097Z   24114.92713441  .00007218  00000-0  47103-3 0  9993,2 53411  53.2165 308.1397 0001233  81.2250 278.8881 15.08849873 95274,6917.85,95.437,540.568,538.862,0.0
53411.0,STARLINK-4497,PAYLOAD,2024-04-24 12:33:32,15.0884432,0.0001087,53.2154,305.4619,110.3758,249.7351,0.00030194,4.521e-05,0.0,0 STARLINK-4497,1 53411U 22097Z   24115.52329494  .00004521  00000-0  30194-3 0  9997,2 53411  53.2154 305.4619 0001087 110.3758 249.7351 15.08844320 94879,6917.867,95.437,540.484,538.98,0.0
53411.0,STARLINK-4497,PAYLOAD,2024-04-24 18:55:05,15.08842315,0.0001263,53.2166,304.2731,105.4372,254.676,0.00021741,3.174e-05,0.0,0 STARLINK-4497,1 53411U 22097Z   24115.78825630  .00003174  00000-0  21741-3 0  9999,2 53411  53.2166 304.2731 0001263 105.4372 254.6760 15.08842315 95408,6917.873,95.437,540.612,538.865,0.0
53411.0,STARLINK-4497,PAYLOAD,2024-04-25 18:45:51,15.08846773,0.0001208,53.2168,299.8128,104.2209,255.8918,4.9255e-05,4.96e-06,0.0,0 STARLINK-4497,1 53411U 22097Z   24116.78185178  .00000496  00000-0  49255-4 0  9991,2 53411  53.2168 299.8128 0001208 104.2209 255.8918 15.08846773 95066,6917.86,95.437,540.56,538.889,0.0
53411.0,STARLINK-4497,PAYLOAD,2024-04-25 21:56:38,15.08849723,0.000119,53.2174,299.2178,105.7946,254.3178,5.0701e-05,5.19e-06,0.0,0 STARLINK-4497,1 53411U 22097Z   24116.91433008  .00000519  00000-0  50701-4 0  9998,2 53411  53.2174 299.2178 0001190 105.7946 254.3178 15.08849723 95572,6917.851,95.437,540.539,538.892,0.0
53411.0,STARLINK-4497,PAYLOAD,2024-04-26 18:36:39,15.08841019,0.0001153,53.2173,295.3516,84.2119,275.9004,3.5997e-05,2.85e-06,0.0,0 STARLINK-4497,1 53411U 22097Z   24117.77545475  .00000285  00000-0  35997-4 0  9995,2 53411  53.2173 295.3516 0001153  84.2119 275.9004 15.08841019 95214,6917.877,95.437,540.54,538.945,0.0
53411.0,STARLINK-4497,PAYLOAD,2024-04-27 12:05:53,15.08836866,0.0001007,53.2177,292.0791,103.5162,256.5943,4.3394e-05,4.03e-06,0.0,0 STARLINK-4497,1 53411U 22097Z   24118.50409642  .00000403  00000-0  43394-4 0  9994,2 53411  53.2177 292.0791 0001007 103.5162 256.5943 15.08836866 95815,6917.89,95.438,540.452,539.058,0.0
53411.0,STARLINK-4497,PAYLOAD,2024-04-27 18:27:26,15.08835151,0.0001076,53.2177,290.8903,84.8817,275.2298,1.831e-05,4e-08,0.0,0 STARLINK-4497,1 53411U 22097Z   24118.76905861  .00000004  00000-0  18310-4 0  9993,2 53411  53.2177 290.8903 0001076  84.8817 275.2298 15.08835151 95367,6917.895,95.438,540.505,539.016,0.0
53411.0,STARLINK-4497,PAYLOAD,2024-04-28 03:59:44,15.08843169,0.0001149,53.2187,289.1096,79.8758,280.2363,6.7465e-05,7.86e-06,0.0,0 STARLINK-4497,1 53411U 22097Z   24119.16649280  .00000786  00000-0  67465-4 0  9990,2 53411  53.2187 289.1096 0001149  79.8758 280.2363 15.08843169 95425,6917.871,95.437,540.531,538.941,0.0
53411.0,STARLINK-4497,PAYLOAD,2024-04-28 10:21:18,15.0883517,0.0001229,53.2196,287.9242,94.0182,266.095,7.7881e-05,9.52e-06,0.0,0 STARLINK-4497,1 53411U 22097Z   24119.43145879  .00000952  00000-0  77881-4 0  9993,2 53411  53.2196 287.9242 0001229  94.0182 266.0950 15.08835170 95464,6917.895,95.438,540.61,538.91,0.0
53411.0,STARLINK-4497,PAYLOAD,2024-04-28 18:18:14,15.08830115,0.0001369,53.2199,286.4369,104.6231,255.4913,-3.1483e-05,-7.89e-06,0.0,0 STARLINK-4497,1 53411U 22097Z   24119.76266642 -.00000789  00000-0 -31483-4 0  9999,2 53411  53.2199 286.4369 0001369 104.6231 255.4913 15.08830115 95510,6917.911,95.438,540.723,538.829,0.0
53411.0,STARLINK-4497,PAYLOAD,2024-04-29 03:50:32,15.08842168,0.0001422,53.22,284.6503,92.1965,267.919,5.0248e-05,5.12e-06,0.0,0 STARLINK-4497,1 53411U 22097Z   24120.16009696  .00000512  00000-0  50248-4 0  9991,2 53411  53.2200 284.6503 0001422  92.1965 267.9190 15.08842168 95570,6917.874,95.437,540.722,538.755,0.0
53411.0,STARLINK-4497,PAYLOAD,2024-04-29 10:12:05,15.08833006,0.0001147,53.221,283.4626,94.4578,265.6546,9.3765e-05,1.204e-05,0.0,0 STARLINK-4497,1 53411U 22097Z   24120.42506163  .00001204  00000-0  93765-4 0  9991,2 53411  53.2210 283.4626 0001147  94.4578 265.6546 15.08833006 95619,6917.902,95.438,540.56,538.973,0.0
53411.0,STARLINK-4497,PAYLOAD,2024-04-29 14:58:15,15.08827982,0.0001534,53.2193,282.569,99.2227,260.8939,5.3231e-05,5.59e-06,0.0,0 STARLINK-4497,1 53411U 22097Z   24120.62378747  .00000559  00000-0  53231-4 0  9994,2 53411  53.2193 282.5690 0001534  99.2227 260.8939 15.08827982 96131,6917.917,95.438,540.843,538.721,0.0
